TEVEL2-2                
1 63219U 25052K   26068.64848259  .00020339  00000+0  69428-3 0  9991
2 63219  97.3987 324.7700 0004693 105.7930 254.3828 15.30343745 54855
STARLINK-34850          
1 65460U 25195C   26068.71399470  .00027705  00000+0  94311-3 0  9996
2 65460  53.1596 258.3347 0001048  68.1690 291.9422 15.30232482 29995
